{"type": "FeatureCollection", "features": [{"type": "Feature", "properties": {"norad_id": 50032, "name": "COSMOS 1408 DEB", "group": "cosmos-1408-debris", "lat": 63.17047422937938, "lon": 67.44763144466904, "alt_km": 428.7628533814541, "timestamp": "2025-12-18T14:52:08.296259+00:00", "meta": {"OBJECT_NAME": "COSMOS 1408 DEB", "OBJECT_ID": "1982-092RU", "EPOCH": "2025-12-18T05:16:11.049312", "MEAN_MOTION": 15.45749079, "ECCENTRICITY": 0.00157679, "INCLINATION": 82.5642, "RA_OF_ASC_NODE": 52.8928, "ARG_OF_PERICENTER": 187.9166, "MEAN_ANOMALY": 172.1837, "EPHEMERIS_TYPE": 0, "CLASSIFICATION_TYPE": "U", "NORAD_CAT_ID": 50032, "ELEMENT_SET_NO": 999, "REV_AT_EPOCH": 22688, "BSTAR": 9.5278906e-05, "MEAN_MOTION_DOT": 4.669e-05, "MEAN_MOTION_DDOT": 0}, "tle": {"line1": "1 50032U 82092RU  25352.21957233  .00004669  00000+0  95279-4 0  9990", "line2": "2 50032  82.5642  52.8928 0015767 187.9166 172.1837 15.45749079226883"}}, "geometry": {"type": "Point", "coordinates": [67.44763144466904, 63.17047422937938]}}, {"type": "Feature", "properties": {"norad_id": 50058, "name": "COSMOS 1408 DEB", "group": "cosmos-1408-debris", "lat": -60.92406580408223, "lon": 49.69432723240424, "alt_km": 390.4536410849032, "timestamp": "2025-12-18T14:52:08.296279+00:00", "meta": {"OBJECT_NAME": "COSMOS 1408 DEB", "OBJECT_ID": "1982-092SW", "EPOCH": "2025-12-18T05:55:20.502048", "MEAN_MOTION": 15.64432229, "ECCENTRICITY": 0.00161978, "INCLINATION": 82.6132, "RA_OF_ASC_NODE": 63.5774, "ARG_OF_PERICENTER": 80.2091, "MEAN_ANOMALY": 280.0997, "EPHEMERIS_TYPE": 0, "CLASSIFICATION_TYPE": "U", "NORAD_CAT_ID": 50058, "ELEMENT_SET_NO": 999, "REV_AT_EPOCH": 22890, "BSTAR": 0.0003034941, "MEAN_MOTION_DOT": 0.00029381, "MEAN_MOTION_DDOT": 0}, "tle": {"line1": "1 50058U 82092SW  25352.24676507  .00029381  00000+0  30349-3 0  9997", "line2": "2 50058  82.6132  63.5774 0016197  80.2091 280.0997 15.64432229228902"}}, "geometry": {"type": "Point", "coordinates": [49.69432723240424, -60.92406580408223]}}, {"type": "Feature", "properties": {"norad_id": 50404, "name": "COSMOS 1408 DEB", "group": "cosmos-1408-debris", "lat": 68.24021926923872, "lon": -130.9152686225003, "alt_km": 551.9202746314213, "timestamp": "2025-12-18T14:52:08.296291+00:00", "meta": {"OBJECT_NAME": "COSMOS 1408 DEB", "OBJECT_ID": "1982-092ADS", "EPOCH": "2025-12-18T01:52:12.715680", "MEAN_MOTION": 15.14600967, "ECCENTRICITY": 0.01699192, "INCLINATION": 82.2038, "RA_OF_ASC_NODE": 209.565, "ARG_OF_PERICENTER": 180.6283, "MEAN_ANOMALY": 179.4765, "EPHEMERIS_TYPE": 0, "CLASSIFICATION_TYPE": "U", "NORAD_CAT_ID": 50404, "ELEMENT_SET_NO": 999, "REV_AT_EPOCH": 21274, "BSTAR": 0.0025124658, "MEAN_MOTION_DOT": 0.00067287, "MEAN_MOTION_DDOT": 0}, "tle": {"line1": "1 50404U 82092ADS 25352.07792495  .00067287  00000+0  25125-2 0  9990", "line2": "2 50404  82.2038 209.5650 0169919 180.6283 179.4765 15.14600967212742"}}, "geometry": {"type": "Point", "coordinates": [-130.9152686225003, 68.24021926923872]}}, {"type": "Feature", "properties": {"norad_id": 50621, "name": "COSMOS 1408 DEB", "group": "cosmos-1408-debris", "lat": 22.605280765528693, "lon": -115.05585880375986, "alt_km": 378.5529733165222, "timestamp": "2025-12-18T14:52:08.296303+00:00", "meta": {"OBJECT_NAME": "COSMOS 1408 DEB", "OBJECT_ID": "1982-092ALR", "EPOCH": "2025-12-18T06:29:08.544192", "MEAN_MOTION": 15.56945936, "ECCENTRICITY": 0.00290388, "INCLINATION": 82.5704, "RA_OF_ASC_NODE": 68.4226, "ARG_OF_PERICENTER": 132.3132, "MEAN_ANOMALY": 228.0591, "EPHEMERIS_TYPE": 0, "CLASSIFICATION_TYPE": "U", "NORAD_CAT_ID": 50621, "ELEMENT_SET_NO": 999, "REV_AT_EPOCH": 22336, "BSTAR": 0.00033132969, "MEAN_MOTION_DOT": 0.00024399, "MEAN_MOTION_DDOT": 0}, "tle": {"line1": "1 50621U 82092ALR 25352.27023778  .00024399  00000+0  33133-3 0  9990", "line2": "2 50621  82.5704  68.4226 0029038 132.3132 228.0591 15.56945936223363"}}, "geometry": {"type": "Point", "coordinates": [-115.05585880375986, 22.605280765528693]}}]}